start=new Date('2022-11-11T00:00:00.000Z').valueOf();
sats=[{"MEAN_MOTION":"15.06373961","ARG_OF_PERICENTER":"71.5667","COUNTRY_CODE":"US","ECCENTRICITY":"0.00013260","APOAPSIS":"548.212","FILE":"3650843","OBJECT_TYPE":"PAYLOAD","BSTAR":"-0.00020642000000","CLASSIFICATION_TYPE":"U","REV_AT_EPOCH":"12293","MEAN_MOTION_DOT":"-0.00003352","GP_ID":"217367312","MEAN_MOTION_DDOT":"0.0000000000000","OBJECT_ID":"2020-057X","OBJECT_NAME":"STARLINK-1590","LAUNCH_DATE":"2020-08-18","RCS_SIZE":"LARGE","SITE":"AFETR","EPHEMERIS_TYPE":"0","TLE_LINE1":"1 46138U 20057X   22314.67837480 -.00003352  00000-0 -20642-3 0  9993","NORAD_CAT_ID":"46138","SEMIMAJOR_AXIS":"6925.428","CENTER_NAME":"EARTH","INCLINATION":"53.0539","TLE_LINE2":"2 46138  53.0539  11.0271 0001326  71.5667 288.5466 15.06373961122932","MEAN_ELEMENT_THEORY":"SGP4","PERIOD":"95.594","REF_FRAME":"TEME","EPOCH":"2022-11-10T16:16:51.582720","MEAN_ANOMALY":"288.5466","RA_OF_ASC_NODE":"11.0271","DECAY_DATE":null,"ELEMENT_SET_NO":"999","TIME_SYSTEM":"UTC","PERIAPSIS":"546.375"},{"RA_OF_ASC_NODE":"330.5900","DECAY_DATE":null,"PERIAPSIS":"545.492","TIME_SYSTEM":"UTC","ELEMENT_SET_NO":"999","INCLINATION":"53.0545","SEMIMAJOR_AXIS":"6925.329","CENTER_NAME":"EARTH","NORAD_CAT_ID":"46140","TLE_LINE1":"1 46140U 20057Z   22314.77050363  .00000027  00000-0  20764-4 0  9994","EPHEMERIS_TYPE":"0","TLE_LINE2":"2 46140  53.0545 330.5900 0002457  42.5069 317.6110 15.06406505124775","PERIOD":"95.592","REF_FRAME":"TEME","EPOCH":"2022-11-10T18:29:31.513632","MEAN_ELEMENT_THEORY":"SGP4","MEAN_ANOMALY":"317.6110","BSTAR":"0.00002076400000","OBJECT_TYPE":"PAYLOAD","FILE":"3650843","REV_AT_EPOCH":"12477","CLASSIFICATION_TYPE":"U","LAUNCH_DATE":"2020-08-18","OBJECT_NAME":"STARLINK-1594","MEAN_MOTION_DOT":"0.00000027","GP_ID":"217368057","MEAN_MOTION_DDOT":"0.0000000000000","OBJECT_ID":"2020-057Z","SITE":"AFETR","RCS_SIZE":"LARGE","MEAN_MOTION":"15.06406505","COUNTRY_CODE":"US","ARG_OF_PERICENTER":"42.5069","APOAPSIS":"548.895","ECCENTRICITY":"0.00024570"},{"FILE":"3650843","OBJECT_TYPE":"PAYLOAD","BSTAR":"-0.00011080000000","CLASSIFICATION_TYPE":"U","REV_AT_EPOCH":"12350","GP_ID":"217358525","MEAN_MOTION_DOT":"-0.00001932","MEAN_MOTION_DDOT":"0.0000000000000","OBJECT_ID":"2020-057AA","OBJECT_NAME":"STARLINK-1596","LAUNCH_DATE":"2020-08-18","RCS_SIZE":"LARGE","SITE":"AFETR","MEAN_MOTION":"15.06403233","ARG_OF_PERICENTER":"47.9042","COUNTRY_CODE":"US","ECCENTRICITY":"0.00019520","APOAPSIS":"548.555","RA_OF_ASC_NODE":"330.6910","DECAY_DATE":null,"ELEMENT_SET_NO":"999","TIME_SYSTEM":"UTC","PERIAPSIS":"545.852","EPHEMERIS_TYPE":"0","TLE_LINE1":"1 46141U 20057AA  22314.74839853 -.00001932  00000-0 -11080-3 0  9999","NORAD_CAT_ID":"46141","INCLINATION":"53.0558","SEMIMAJOR_AXIS":"6925.339","CENTER_NAME":"EARTH","TLE_LINE2":"2 46141  53.0558 330.6910 0001952  47.9042 312.2113 15.06403233123500","PERIOD":"95.592","MEAN_ELEMENT_THEORY":"SGP4","REF_FRAME":"TEME","EPOCH":"2022-11-10T17:57:41.632992","MEAN_ANOMALY":"312.2113"},{"DECAY_DATE":null,"TIME_SYSTEM":"UTC","ELEMENT_SET_NO":"999","PERIAPSIS":"546.365","RA_OF_ASC_NODE":"11.2227","EPOCH":"2022-11-10T15:13:10.023456","PERIOD":"95.594","REF_FRAME":"TEME","MEAN_ELEMENT_THEORY":"SGP4","MEAN_ANOMALY":"281.8975","EPHEMERIS_TYPE":"0","SEMIMAJOR_AXIS":"6925.425","INCLINATION":"53.0552","CENTER_NAME":"EARTH","TLE_LINE1":"1 46142U 20057AB  22314.63414379  .00001661  00000-0  13049-3 0  9994","NORAD_CAT_ID":"46142","TLE_LINE2":"2 46142  53.0552  11.2227 0001335  78.2164 281.8975 15.06375112122921","GP_ID":"217366563","MEAN_MOTION_DOT":"0.00001661","MEAN_MOTION_DDOT":"0.0000000000000","OBJECT_ID":"2020-057AB","LAUNCH_DATE":"2020-08-18","OBJECT_NAME":"STARLINK-1597","RCS_SIZE":"LARGE","SITE":"AFETR","FILE":"3650843","BSTAR":"0.00013049000000","OBJECT_TYPE":"PAYLOAD","REV_AT_EPOCH":"12292","CLASSIFICATION_TYPE":"U","COUNTRY_CODE":"US","ARG_OF_PERICENTER":"78.2164","APOAPSIS":"548.214","ECCENTRICITY":"0.00013350","MEAN_MOTION":"15.06375112"},{"DECAY_DATE":null,"PERIAPSIS":"545.879","ELEMENT_SET_NO":"999","TIME_SYSTEM":"UTC","RA_OF_ASC_NODE":"350.4721","REF_FRAME":"TEME","PERIOD":"95.593","MEAN_ELEMENT_THEORY":"SGP4","EPOCH":"2022-11-10T19:09:21.291840","MEAN_ANOMALY":"295.6599","TLE_LINE1":"1 46144U 20057AD  22314.79816310  .00012842  00000-0  87974-3 0  9995","NORAD_CAT_ID":"46144","SEMIMAJOR_AXIS":"6925.388","CENTER_NAME":"EARTH","INCLINATION":"53.0549","EPHEMERIS_TYPE":"0","TLE_LINE2":"2 46144  53.0549 350.4721 0001984  64.4595 295.6599 15.06387147111486","OBJECT_NAME":"STARLINK-1606","LAUNCH_DATE":"2020-08-18","MEAN_MOTION_DDOT":"0.0000000000000","GP_ID":"217366813","OBJECT_ID":"2020-057AD","MEAN_MOTION_DOT":"0.00012842","SITE":"AFETR","RCS_SIZE":"LARGE","OBJECT_TYPE":"PAYLOAD","BSTAR":"0.00087974000000","FILE":"3650843","CLASSIFICATION_TYPE":"U","REV_AT_EPOCH":"11148","ARG_OF_PERICENTER":"64.4595","COUNTRY_CODE":"US","ECCENTRICITY":"0.00019840","APOAPSIS":"548.627","MEAN_MOTION":"15.06387147"},{"RA_OF_ASC_NODE":"11.7751","PERIAPSIS":"546.108","TIME_SYSTEM":"UTC","ELEMENT_SET_NO":"999","DECAY_DATE":null,"TLE_LINE2":"2 46146  53.0550  11.7751 0001590  70.7182 289.3979 15.06401505123575","CENTER_NAME":"EARTH","SEMIMAJOR_AXIS":"6925.344","INCLINATION":"53.0550","NORAD_CAT_ID":"46146","TLE_LINE1":"1 46146U 20057AF  22314.51249548 -.00003056  00000-0 -18636-3 0  9998","EPHEMERIS_TYPE":"0","MEAN_ANOMALY":"289.3979","MEAN_ELEMENT_THEORY":"SGP4","PERIOD":"95.592","REF_FRAME":"TEME","EPOCH":"2022-11-10T12:17:59.609472","REV_AT_EPOCH":"12357","CLASSIFICATION_TYPE":"U","BSTAR":"-0.00018636000000","OBJECT_TYPE":"PAYLOAD","FILE":"3650437","SITE":"AFETR","RCS_SIZE":"LARGE","LAUNCH_DATE":"2020-08-18","OBJECT_NAME":"STARLINK-1608","GP_ID":"217338353","MEAN_MOTION_DDOT":"0.0000000000000","OBJECT_ID":"2020-057AF","MEAN_MOTION_DOT":"-0.00003056","MEAN_MOTION":"15.06401505","APOAPSIS":"548.310","ECCENTRICITY":"0.00015900","COUNTRY_CODE":"US","ARG_OF_PERICENTER":"70.7182"},{"RA_OF_ASC_NODE":"11.5506","TIME_SYSTEM":"UTC","ELEMENT_SET_NO":"999","PERIAPSIS":"545.922","DECAY_DATE":null,"TLE_LINE2":"2 46147  53.0548  11.5506 0001965  54.7566 305.3607 15.06377285124174","EPHEMERIS_TYPE":"0","SEMIMAJOR_AXIS":"6925.418","INCLINATION":"53.0548","CENTER_NAME":"EARTH","TLE_LINE1":"1 46147U 20057AG  22314.56042553 -.00006466  00000-0 -41583-3 0  9996","NORAD_CAT_ID":"46147","MEAN_ANOMALY":"305.3607","MEAN_ELEMENT_THEORY":"SGP4","PERIOD":"95.594","EPOCH":"2022-11-10T13:27:00.765792","REF_FRAME":"TEME","REV_AT_EPOCH":"12417","CLASSIFICATION_TYPE":"U","FILE":"3650843","BSTAR":"-0.00041583000000","OBJECT_TYPE":"PAYLOAD","RCS_SIZE":"LARGE","SITE":"AFETR","MEAN_MOTION_DOT":"-0.00006466","GP_ID":"217368299","MEAN_MOTION_DDOT":"0.0000000000000","OBJECT_ID":"2020-057AG","LAUNCH_DATE":"2020-08-18","OBJECT_NAME":"STARLINK-1611","MEAN_MOTION":"15.06377285","APOAPSIS":"548.644","ECCENTRICITY":"0.00019650","COUNTRY_CODE":"US","ARG_OF_PERICENTER":"54.7566"},{"FILE":"3650843","BSTAR":"0.00095773000000","OBJECT_TYPE":"PAYLOAD","REV_AT_EPOCH":"12320","CLASSIFICATION_TYPE":"U","OBJECT_ID":"2020-057AH","GP_ID":"217367063","MEAN_MOTION_DDOT":"0.0000000000000","MEAN_MOTION_DOT":"0.00014000","LAUNCH_DATE":"2020-08-18","OBJECT_NAME":"STARLINK-1616","RCS_SIZE":"LARGE","SITE":"AFETR","MEAN_MOTION":"15.06368509","COUNTRY_CODE":"US","ARG_OF_PERICENTER":"60.4601","APOAPSIS":"548.181","ECCENTRICITY":"0.00012570","RA_OF_ASC_NODE":"351.2344","DECAY_DATE":null,"TIME_SYSTEM":"UTC","ELEMENT_SET_NO":"999","PERIAPSIS":"546.440","EPHEMERIS_TYPE":"0","SEMIMAJOR_AXIS":"6925.445","INCLINATION":"53.0550","CENTER_NAME":"EARTH","TLE_LINE1":"1 46148U 20057AH  22314.63231123  .00014000  00000-0  95773-3 0  9999","NORAD_CAT_ID":"46148","TLE_LINE2":"2 46148  53.0550 351.2344 0001257  60.4601 299.6513 15.06368509123203","PERIOD":"95.594","MEAN_ELEMENT_THEORY":"SGP4","REF_FRAME":"TEME","EPOCH":"2022-11-10T15:10:31.690272","MEAN_ANOMALY":"299.6513"},{"MEAN_ANOMALY":"316.9386","PERIOD":"95.594","MEAN_ELEMENT_THEORY":"SGP4","REF_FRAME":"TEME","EPOCH":"2022-11-10T09:08:12.781536","TLE_LINE2":"2 46149  53.0539 352.3539 0001658  43.1732 316.9386 15.06376037124440","EPHEMERIS_TYPE":"0","NORAD_CAT_ID":"46149","TLE_LINE1":"1 46149U 20057AJ  22314.38070349  .00004168  00000-0  29872-3 0  9994","INCLINATION":"53.0539","SEMIMAJOR_AXIS":"6925.422","CENTER_NAME":"EARTH","ELEMENT_SET_NO":"999","TIME_SYSTEM":"UTC","PERIAPSIS":"546.139","DECAY_DATE":null,"RA_OF_ASC_NODE":"352.3539","ECCENTRICITY":"0.00016580","APOAPSIS":"548.435","ARG_OF_PERICENTER":"43.1732","COUNTRY_CODE":"US","MEAN_MOTION":"15.06376037","RCS_SIZE":"LARGE","SITE":"AFETR","GP_ID":"217306026","OBJECT_ID":"2020-057AJ","MEAN_MOTION_DDOT":"0.0000000000000","MEAN_MOTION_DOT":"0.00004168","OBJECT_NAME":"STARLINK-1620","LAUNCH_DATE":"2020-08-18","CLASSIFICATION_TYPE":"U","REV_AT_EPOCH":"12444","FILE":"3650424","OBJECT_TYPE":"PAYLOAD","BSTAR":"0.00029872000000"},{"RA_OF_ASC_NODE":"11.4883","PERIAPSIS":"546.252","ELEMENT_SET_NO":"999","TIME_SYSTEM":"UTC","DECAY_DATE":null,"TLE_LINE2":"2 46150  53.0569  11.4883 0001451  56.5392 303.5735 15.06385980122929","TLE_LINE1":"1 46150U 20057AK  22314.57516364 -.00001004  00000-0 -48539-4 0  9999","NORAD_CAT_ID":"46150","CENTER_NAME":"EARTH","SEMIMAJOR_AXIS":"6925.392","INCLINATION":"53.0569","EPHEMERIS_TYPE":"0","MEAN_ANOMALY":"303.5735","REF_FRAME":"TEME","PERIOD":"95.593","MEAN_ELEMENT_THEORY":"SGP4","EPOCH":"2022-11-10T13:48:14.138496","CLASSIFICATION_TYPE":"U","REV_AT_EPOCH":"12292","OBJECT_TYPE":"PAYLOAD","BSTAR":"-0.00004853900000","FILE":"3650843","SITE":"AFETR","RCS_SIZE":"LARGE","OBJECT_NAME":"STARLINK-1629","LAUNCH_DATE":"2020-08-18","MEAN_MOTION_DDOT":"0.0000000000000","GP_ID":"217368058","OBJECT_ID":"2020-057AK","MEAN_MOTION_DOT":"-0.00001004","MEAN_MOTION":"15.06385980","ECCENTRICITY":"0.00014510","APOAPSIS":"548.261","ARG_OF_PERICENTER":"56.5392","COUNTRY_CODE":"US"}];
